*******************************************************************************
Ephemeris / WWW_USER Mon Jul 15 19:14:00 2024 Pasadena, USA      / Horizons    
*******************************************************************************
Target body name: (2018 VS1)                      {source: JPL#4}
Center body name: Earth (399)                     {source: DE441}
Center-site name: Gemini South Obs., Cerro Pachon
*******************************************************************************
Start time      : A.D. 2018-Oct-19 23:04:00.0000 UT      
Stop  time      : A.D. 2018-Oct-20 09:51:00.0000 UT      
Step-size       : 1 minutes
*******************************************************************************
Target pole/equ : undefined
Target radii    : undefined                                                    
Center geodetic : 289.2634, -30.2406227, 2.71233  {E-lon(deg),Lat(deg),Alt(km)}
Center cylindric: 289.2634,5517.21435,-3194.81213 {E-lon(deg),Dxy(km),Dz(km)}
Center pole/equ : ITRF93                          {East-longitude positive}
Center radii    : 6378.137, 6378.137, 6356.752 km {Equator_a, b, pole_c}       
Target primary  : Sun
Vis. interferer : MOON (R_eq= 1737.400) km        {source: DE441}
Rel. light bend : Sun                             {source: DE441}
Rel. lght bnd GM: 1.3271E+11 km^3/s^2                                          
Small-body perts: Yes                             {source: SB441-N16}
Atmos refraction: NO (AIRLESS)
RA format       : HMS
Time format     : CAL 
Calendar mode   : Mixed Julian/Gregorian
RTS-only print  : NO       
EOP file        : eop.240715.p241008                                           
EOP coverage    : DATA-BASED 1962-JAN-20 TO 2024-JUL-15. PREDICTS-> 2024-OCT-07
Units conversion: 1 au= 149597870.700 km, c= 299792.458 km/s, 1 day= 86400.0 s 
Table cut-offs 1: Elevation (-90.0deg=NO ),Airmass (>38.000=NO), Daylight (YES)
Table cut-offs 2: Solar elongation (  0.0,180.0=NO ),Local Hour Angle( 0.0=NO )
Table cut-offs 3: RA/DEC angular rate (     0.0=NO )                           
*******************************************************************************
Initial IAU76/J2000 heliocentric ecliptic osculating elements (au, days, deg.):
  EPOCH=  2458427.5 ! 2018-Nov-05.00 (TDB)         Residual RMS= .21634        
   EC= .3907275528854954   QR= .7806320880190512   TP= 2458486.1030618688      
   OM= 55.95483604725189   W=  67.17004921097404   IN= 3.601110299269385       
  Equivalent ICRF heliocentric cartesian coordinates (au, au/d):
   X= 7.595935200506908E-01  Y= 6.354459268576240E-01  Z= 2.586666727482118E-01
  VX=-1.643099138746886E-02 VY= 7.530892270769961E-03 VZ= 4.533522122669557E-03
Asteroid physical parameters (km, seconds, rotational period in hours):        
   GM= n.a.                RAD= n.a.               ROTPER= n.a.                
   H= 26.6                 G= .150                 B-V= n.a.                   
                           ALBEDO= n.a.            STYP= n.a.                  
*******************************************************************************
 Date__(UT)__HR:MN     R.A._________(ICRF)_________DEC
******************************************************
$$SOE
 2018-Oct-20 09:19 N   02 46 22.261639 +01 13 54.37345
 2018-Oct-20 09:20 N   02 46 22.263671 +01 13 53.75845
 2018-Oct-20 09:21 N   02 46 22.265762 +01 13 53.14341
 2018-Oct-20 09:22 N   02 46 22.267912 +01 13 52.52832
 2018-Oct-20 09:23 N   02 46 22.270121 +01 13 51.91319
 2018-Oct-20 09:24 N   02 46 22.272390 +01 13 51.29802
 2018-Oct-20 09:25 N   02 46 22.274718 +01 13 50.68280
 2018-Oct-20 09:26 N   02 46 22.277106 +01 13 50.06754
 2018-Oct-20 09:27 N   02 46 22.279553 +01 13 49.45224
 2018-Oct-20 09:28 N   02 46 22.282061 +01 13 48.83689
 2018-Oct-20 09:29 N   02 46 22.284630 +01 13 48.22150
 2018-Oct-20 09:30 N   02 46 22.287258 +01 13 47.60607
 2018-Oct-20 09:31 N   02 46 22.289948 +01 13 46.99060
 2018-Oct-20 09:32 N   02 46 22.292698 +01 13 46.37509
 2018-Oct-20 09:33 N   02 46 22.295509 +01 13 45.75953
 2018-Oct-20 09:34 N   02 46 22.298381 +01 13 45.14393
 2018-Oct-20 09:35 C   02 46 22.301314 +01 13 44.52829
 2018-Oct-20 09:36 C   02 46 22.304309 +01 13 43.91260
 2018-Oct-20 09:37 C   02 46 22.307365 +01 13 43.29688
 2018-Oct-20 09:38 C   02 46 22.310484 +01 13 42.68111
 2018-Oct-20 09:39 C   02 46 22.313664 +01 13 42.06530
 2018-Oct-20 09:40 C   02 46 22.316906 +01 13 41.44945
 2018-Oct-20 09:41 C   02 46 22.320210 +01 13 40.83356
 2018-Oct-20 09:42 C   02 46 22.323577 +01 13 40.21763
 2018-Oct-20 09:43 C   02 46 22.327007 +01 13 39.60165
 2018-Oct-20 09:44 C   02 46 22.330499 +01 13 38.98564
 2018-Oct-20 09:45 C   02 46 22.334054 +01 13 38.36958
 2018-Oct-20 09:46 C   02 46 22.337672 +01 13 37.75348
 2018-Oct-20 09:47 C   02 46 22.341354 +01 13 37.13734
 2018-Oct-20 09:48 C   02 46 22.345098 +01 13 36.52116
 2018-Oct-20 09:49 C   02 46 22.348906 +01 13 35.90494
 2018-Oct-20 09:50 C   02 46 22.352778 +01 13 35.28868
 2018-Oct-20 09:51 C   02 46 22.356714 +01 13 34.67238
